NORAD_CAT_ID,OBJECT_NAME,OBJECT_TYPE,EPOCH,MEAN_MOTION,ECCENTRICITY,INCLINATION,RA_OF_ASC_NODE,ARG_OF_PERICENTER,MEAN_ANOMALY,BSTAR,MEAN_MOTION_DOT,MEAN_MOTION_DDOT,TLE_LINE0,TLE_LINE1,TLE_LINE2,SEMIMAJOR_AXIS,PERIOD,APOGEE,PERIGEE,DECAYED
56814.0,STARLINK-6059,PAYLOAD,2023-11-05 19:55:25,14.98333384,0.0002624,70.0003,339.731,273.6768,86.4091,6.815e-05,7.2e-06,0.0,0 STARLINK-6059,1 56814U 23078AZ  23309.83016054  .00000720  00000-0  68150-4 0  9991,2 56814  70.0003 339.7310 0002624 273.6768  86.4091 14.98333384 24634,6950.182,96.107,573.871,570.224,0.0
56814.0,STARLINK-6059,PAYLOAD,2023-11-06 11:56:45,14.98342016,0.0002813,69.9993,338.0486,268.8051,91.2786,9.0273e-05,9.85e-06,0.0,0 STARLINK-6059,1 56814U 23078AZ  23310.49775039  .00000985  00000-0  90273-4 0  9994,2 56814  69.9993 338.0486 0002813 268.8051  91.2786 14.98342016 24992,6950.156,96.106,573.976,570.066,0.0
56814.0,STARLINK-6059,PAYLOAD,2023-11-07 03:58:09,14.98308965,0.0003086,69.999,336.3631,273.8824,86.1982,-0.00023503,-2.895e-05,0.0,0 STARLINK-6059,1 56814U 23078AZ  23311.16538345 -.00002895  00000-0 -23503-3 0  9991,2 56814  69.9990 336.3631 0003086 273.8824  86.1982 14.98308965 25097,6950.258,96.108,574.268,569.978,0.0
56814.0,STARLINK-6059,PAYLOAD,2023-11-07 11:58:49,14.98305453,0.0002785,69.9992,335.523,263.9127,96.1715,-0.00023508,-2.895e-05,0.0,0 STARLINK-6059,1 56814U 23078AZ  23311.49918953 -.00002895  00000-0 -23508-3 0  9999,2 56814  69.9992 335.5230 0002785 263.9127  96.1715 14.98305453 24886,6950.269,96.109,574.069,570.198,0.0
56814.0,STARLINK-6059,PAYLOAD,2023-11-08 02:24:01,14.98320401,0.0002884,69.999,334.0076,267.4074,92.6755,-0.000141,-1.775e-05,0.0,0 STARLINK-6059,1 56814U 23078AZ  23312.10002185 -.00001775  00000-0 -14100-3 0  9993,2 56814  69.9990 334.0076 0002884 267.4074  92.6755 14.98320401 25231,6950.223,96.108,574.092,570.083,0.0
56814.0,STARLINK-6059,PAYLOAD,2023-11-08 12:00:55,14.98257453,0.0002289,69.9989,332.9986,268.3345,91.7552,-0.00087252,-0.00010468,0.0,0 STARLINK-6059,1 56814U 23078AZ  23312.50064067 -.00010468  00000-0 -87252-3 0  9991,2 56814  69.9989 332.9986 0002289 268.3345  91.7552 14.98257453 25293,6950.417,96.112,573.873,570.691,0.0
56814.0,STARLINK-6059,PAYLOAD,2023-11-08 18:25:21,14.98333178,0.0002091,69.9991,332.3251,265.3548,94.7372,-1.3657e-05,-2.56e-06,0.0,0 STARLINK-6059,1 56814U 23078AZ  23312.76761542 -.00000256  00000-0 -13657-4 0  9994,2 56814  69.9991 332.3251 0002091 265.3548  94.7372 14.98333178 25335,6950.183,96.107,573.501,570.595,0.0
56814.0,STARLINK-6059,PAYLOAD,2023-11-09 10:26:42,14.98325534,0.0002509,69.9995,330.6412,255.3668,104.7213,0.00036231,4.232e-05,0.0,0 STARLINK-6059,1 56814U 23078AZ  23313.43521056  .00004232  00000-0  36231-3 0  9991,2 56814  69.9995 330.6412 0002509 255.3668 104.7213 14.98325534 25170,6950.207,96.107,573.816,570.328,0.0
56814.0,STARLINK-6059,PAYLOAD,2023-11-09 18:27:22,14.98351298,0.000247,69.9999,329.7985,272.6276,87.46,-0.00011939,-1.518e-05,0.0,0 STARLINK-6059,1 56814U 23078AZ  23313.76900607 -.00001518  00000-0 -11939-3 0  9994,2 56814  69.9999 329.7985 0002470 272.6276  87.4600 14.98351298 25489,6950.127,96.106,573.709,570.275,0.0
56814.0,STARLINK-6059,PAYLOAD,2023-11-10 04:04:10,14.98330502,0.0002616,69.9989,328.7895,262.0395,98.0467,0.00022998,2.652e-05,0.0,0 STARLINK-6059,1 56814U 23078AZ  23314.16956905  .00002652  00000-0  22998-3 0  9996,2 56814  69.9989 328.7895 0002616 262.0395  98.0467 14.98330502 25545,6950.191,96.107,573.875,570.238,0.0
56814.0,STARLINK-6059,PAYLOAD,2023-11-10 10:28:42,14.98338789,0.0002673,69.9987,328.1159,262.8189,97.2666,8.6761e-05,9.43e-06,0.0,0 STARLINK-6059,1 56814U 23078AZ  23314.43660675  .00000943  00000-0  86761-4 0  9992,2 56814  69.9987 328.1159 0002673 262.8189  97.2666 14.98338789 25325,6950.166,96.106,573.888,570.173,0.0
56814.0,STARLINK-6059,PAYLOAD,2023-11-10 18:29:23,14.98333317,0.000254,70.0001,327.273,272.8428,87.244,2.3924e-05,1.93e-06,0.0,0 STARLINK-6059,1 56814U 23078AZ  23314.77041125  .00000193  00000-0  23924-4 0  9991,2 56814  70.0001 327.2730 0002540 272.8428  87.2440 14.98333317 25376,6950.183,96.107,573.813,570.282,0.0
56814.0,STARLINK-6059,PAYLOAD,2023-11-11 04:06:11,14.98335256,0.0002775,69.9985,326.263,268.5752,91.5089,-0.00010807,-1.382e-05,0.0,0 STARLINK-6059,1 56814U 23078AZ  23315.17097050 -.00001382  00000-0 -10807-3 0  9992,2 56814  69.9985 326.2630 0002775 268.5752  91.5089 14.98335256 25690,6950.177,96.107,573.97,570.113,0.0
56814.0,STARLINK-6059,PAYLOAD,2023-11-11 10:30:43,14.98347113,0.0002311,69.9999,325.5911,273.2577,86.8318,3.8428e-05,3.66e-06,0.0,0 STARLINK-6059,1 56814U 23078AZ  23315.43799974  .00000366  00000-0  38428-4 0  9994,2 56814  69.9999 325.5911 0002311 273.2577  86.8318 14.98347113 25735,6950.14,96.106,573.611,570.399,0.0
56814.0,STARLINK-6059,PAYLOAD,2023-11-11 18:31:22,14.98353644,0.0002231,69.9997,324.7481,273.7462,86.3442,0.00010543,1.166e-05,0.0,0 STARLINK-6059,1 56814U 23078AZ  23315.77178952  .00001166  00000-0  10543-3 0  9994,2 56814  69.9997 324.7481 0002231 273.7462  86.3442 14.98353644 25789,6950.12,96.105,573.535,570.434,0.0
56814.0,STARLINK-6059,PAYLOAD,2023-11-12 10:32:41,14.98358873,0.0002867,69.9985,323.0652,271.7192,88.3639,0.0001744,1.99e-05,0.0,0 STARLINK-6059,1 56814U 23078AZ  23316.43937089  .00001990  00000-0  17440-3 0  9990,2 56814  69.9985 323.0652 0002867 271.7192  88.3639 14.98358873 25623,6950.104,96.105,573.961,569.976,0.0
56814.0,STARLINK-6059,PAYLOAD,2023-11-13 04:10:12,14.98324674,0.0003201,69.9981,321.2126,273.2969,86.7824,-7.0855e-05,-9.38e-06,0.0,0 STARLINK-6059,1 56814U 23078AZ  23317.17375440 -.00000938  00000-0 -70855-4 0  9992,2 56814  69.9981 321.2126 0003201 273.2969  86.7824 14.98324674 25997,6950.209,96.107,574.299,569.85,0.0
56814.0,STARLINK-6059,PAYLOAD,2023-11-13 10:34:44,14.98324416,0.0002865,69.9989,320.5395,265.3902,94.693,-6.9484e-05,-9.22e-06,0.0,0 STARLINK-6059,1 56814U 23078AZ  23317.44079465 -.00000922  00000-0 -69484-4 0  9999,2 56814  69.9989 320.5395 0002865 265.3902  94.6930 14.98324416 25775,6950.21,96.107,574.066,570.084,0.0
56814.0,STARLINK-6059,PAYLOAD,2023-11-14 04:12:13,14.98329261,0.0002918,69.999,318.6884,268.4819,91.6006,-0.00030124,-3.685e-05,0.0,0 STARLINK-6059,1 56814U 23078AZ  23318.17515750 -.00003685  00000-0 -30124-3 0  9999,2 56814  69.9990 318.6884 0002918 268.4819  91.6006 14.98329261 26144,6950.195,96.107,574.088,570.032,0.0
56814.0,STARLINK-6059,PAYLOAD,2023-11-14 10:36:45,14.98329094,0.0002667,69.9996,318.0156,264.9093,95.1762,-0.00024788,-3.049e-05,0.0,0 STARLINK-6059,1 56814U 23078AZ  23318.44219637 -.00003049  00000-0 -24788-3 0  9997,2 56814  69.9996 318.0156 0002667 264.9093  95.1762 14.98329094 25929,6950.196,96.107,573.914,570.207,0.0
56814.0,STARLINK-6059,PAYLOAD,2023-11-14 17:01:17,14.98331719,0.0002675,69.9996,317.3421,270.8885,89.1967,-0.00022473,-2.773e-05,0.0,0 STARLINK-6059,1 56814U 23078AZ  23318.70923497 -.00002773  00000-0 -22473-3 0  9994,2 56814  69.9996 317.3421 0002675 270.8885  89.1967 14.98331719 25961,6950.188,96.107,573.912,570.193,0.0
56814.0,STARLINK-6059,PAYLOAD,2023-11-15 10:38:46,14.98326415,0.0002718,70.0,315.4899,262.7248,97.3602,0.00021639,2.49e-05,0.0,0 STARLINK-6059,1 56814U 23078AZ  23319.44359050  .00002490  00000-0  21639-3 0  9991,2 56814  70.0000 315.4899 0002718 262.7248  97.3602 14.98326415 26335,6950.204,96.107,573.958,570.18,0.0
56814.0,STARLINK-6059,PAYLOAD,2023-11-15 17:03:18,14.98333504,0.0002816,70.0002,314.8165,270.0628,90.0208,-0.00015173,-1.903e-05,0.0,0 STARLINK-6059,1 56814U 23078AZ  23319.71063562 -.00001903  00000-0 -15173-3 0  9997,2 56814  70.0002 314.8165 0002816 270.0628  90.0208 14.98333504 26114,6950.182,96.107,574.004,570.09,0.0
56814.0,STARLINK-6059,PAYLOAD,2023-11-16 02:40:07,14.98319357,0.0002622,69.9997,313.8073,263.4609,96.6252,8.0531e-05,8.68e-06,0.0,0 STARLINK-6059,1 56814U 23078AZ  23320.11120182  .00000868  00000-0  80531-4 0  9993,2 56814  69.9997 313.8073 0002622 263.4609  96.6252 14.98319357 26437,6950.226,96.108,573.913,570.268,0.0
56814.0,STARLINK-6059,PAYLOAD,2023-11-16 09:04:41,14.98308047,0.0002609,70.0,313.1341,248.4362,111.6519,-5.7299e-05,-7.76e-06,0.0,0 STARLINK-6059,1 56814U 23078AZ  23320.37825353 -.00000776  00000-0 -57299-4 0  9998,2 56814  70.0000 313.1341 0002609 248.4362 111.6519 14.98308047 26472,6950.261,96.108,573.939,570.312,0.0
56814.0,STARLINK-6059,PAYLOAD,2023-11-16 17:05:19,14.98341094,0.0001926,70.0029,312.2917,271.0713,89.0226,0.00017819,2.034e-05,0.0,0 STARLINK-6059,1 56814U 23078AZ  23320.71203165  .00002034  00000-0  17819-3 0  9997,2 56814  70.0029 312.2917 0001926 271.0713  89.0226 14.98341094 26523,6950.159,96.106,573.362,570.685,0.0
56814.0,STARLINK-6059,PAYLOAD,2023-11-17 02:42:08,14.9832618,0.000288,69.9992,311.2812,269.5188,90.5641,1.0079e-06,-8.1e-07,0.0,0 STARLINK-6059,1 56814U 23078AZ  23321.11260332 -.00000081  00000-0  10079-5 0  9995,2 56814  69.9992 311.2812 0002880 269.5188  90.5641 14.98326180 26583,6950.205,96.107,574.071,570.068,0.0
56814.0,STARLINK-6059,PAYLOAD,2023-11-17 09:06:41,14.98325578,0.0002689,69.9998,310.6083,268.2153,91.8698,1.3955e-05,7.4e-07,0.0,0 STARLINK-6059,1 56814U 23078AZ  23321.37964383  .00000074  00000-0  13955-4 0  9996,2 56814  69.9998 310.6083 0002689 268.2153  91.8698 14.98325578 26369,6950.207,96.107,573.94,570.203,0.0
56814.0,STARLINK-6059,PAYLOAD,2023-11-17 17:07:22,14.98313845,0.0001946,70.0015,309.7664,269.7122,90.3814,-6.1036e-05,-8.21e-06,0.0,0 STARLINK-6059,1 56814U 23078AZ  23321.71345533 -.00000821  00000-0 -61036-4 0  9999,2 56814  70.0015 309.7664 0001946 269.7122  90.3814 14.98313845 26675,6950.243,96.108,573.46,570.755,0.0
56814.0,STARLINK-6059,PAYLOAD,2023-11-18 09:08:46,14.98256744,0.0002531,70.0015,308.0837,265.0441,95.0429,-7.2227e-05,-9.53e-06,0.0,0 STARLINK-6059,1 56814U 23078AZ  23322.38108813 -.00000953  00000-0 -72227-4 0  9991,2 56814  70.0015 308.0837 0002531 265.0441  95.0429 14.98256744 26772,6950.419,96.112,574.044,570.525,0.0
